{"type": "FeatureCollection", "features": [ {"type": "Feature", "properties": {"norad_id": 34375, "name": "IRIDIUM 33 DEB", "group": "iridium-33-debris", "lat": -76.74519708348225, "lon": 13.454857845814237, "alt_km": 912.11537754869, "timestamp": "2025-12-24T03:53:30.032022+00:00", "meta": {"OBJECT_NAME": "IRIDIUM 33 DEB", "OBJECT_ID": "1997-051FT", "EPOCH": "2025-12-22T12:02:26.342592", "MEAN_MOTION": 14.18009533, "ECCENTRICITY": 0.01037059, "INCLINATION": 86.4323, "RA_OF_ASC_NODE": 178.7659, "ARG_OF_PERICENTER": 96.2041, "MEAN_ANOMALY": 329.6113, "EPHEMERIS_TYPE": 0, "CLASSIFICATION_TYPE": "U", "NORAD_CAT_ID": 34375, "ELEMENT_SET_NO": 999, "REV_AT_EPOCH": 86850, "BSTAR": 0.00038502204, "MEAN_MOTION_DOT": 8.51e-06, "MEAN_MOTION_DDOT": 0}, "tle": {"line1": "1 34375U 97051FT  25356.50169378  .00000851  00000+0  38502-3 0  9998", "line2": "2 34375  86.4323 178.7659 0103705  96.2041 329.6113 14.18009533868507"}}, "geometry": {"type": "Point", "coordinates": [13.454857845814237, -76.74519708348225]}}, {"type": "Feature", "properties": {"norad_id": 34376, "name": "IRIDIUM 33 DEB", "group": "iridium-33-debris", "lat": -57.56372502944688, "lon": -4.443758471504863, "alt_km": 711.4936165923727, "timestamp": "2025-12-24T03:53:30.032033+00:00", "meta": {"OBJECT_NAME": "IRIDIUM 33 DEB", "OBJECT_ID": "1997-051FU", "EPOCH": "2025-12-23T18:18:19.809792", "MEAN_MOTION": 14.62709985, "ECCENTRICITY": 0.0028354, "INCLINATION": 86.298, "RA_OF_ASC_NODE": 1.5832, "ARG_OF_PERICENTER": 130.5019, "MEAN_ANOMALY": 229.867, "EPHEMERIS_TYPE": 0, "CLASSIFICATION_TYPE": "U", "NORAD_CAT_ID": 34376, "ELEMENT_SET_NO": 999, "REV_AT_EPOCH": 88168, "BSTAR": 0.0014354, "MEAN_MOTION_DOT": 7.374e-05, "MEAN_MOTION_DDOT": 0}, "tle": {"line1": "1 34376U 97051FU  25357.76272928  .00007374  00000+0  14354-2 0  9999", "line2": "2 34376  86.2980   1.5832 0028354 130.5019 229.8670 14.62709985881684"}}, "geometry": {"type": "Point", "coordinates": [-4.443758471504863, -57.56372502944688]}}, {"type": "Feature", "properties": {"norad_id": 34486, "name": "IRIDIUM 33 DEB", "group": "iridium-33-debris", "lat": 86.36916724886574, "lon": 102.92020436252042, "alt_km": 561.4048434051356, "timestamp": "2025-12-24T03:53:30.032044+00:00", "meta": {"OBJECT_NAME": "IRIDIUM 33 DEB", "OBJECT_ID": "1997-051GB", "EPOCH": "2025-12-22T11:56:52.779840", "MEAN_MOTION": 14.9620636, "ECCENTRICITY": 0.00139165, "INCLINATION": 86.3926, "RA_OF_ASC_NODE": 7.5191, "ARG_OF_PERICENTER": 84.4454, "MEAN_ANOMALY": 47.0404, "EPHEMERIS_TYPE": 0, "CLASSIFICATION_TYPE": "U", "NORAD_CAT_ID": 34486, "ELEMENT_SET_NO": 999, "REV_AT_EPOCH": 89132, "BSTAR": 0.002364133, "MEAN_MOTION_DOT": 0.00026794, "MEAN_MOTION_DDOT": 0}, "tle": {"line1": "1 34486U 97051GB  25356.49783310  .00026794  00000+0  23641-2 0  9998", "line2": "2 34486  86.3926   7.5191 0013916  84.4454  47.0404 14.96206360891322"}}, "geometry": {"type": "Point", "coordinates": [102.92020436252042, 86.36916724886574]}}, {"type": "Feature", "properties": {"norad_id": 34487, "name": "IRIDIUM 33 DEB", "group": "iridium-33-debris", "lat": 82.2284898861446, "lon": 159.51378357131884, "alt_km": 716.8362403940719, "timestamp": "2025-12-24T03:53:30.032054+00:00", "meta": {"OBJECT_NAME": "IRIDIUM 33 DEB", "OBJECT_ID": "1997-051GC", "EPOCH": "2025-12-23T01:04:13.236960", "MEAN_MOTION": 14.43228898, "ECCENTRICITY": 0.00332442, "INCLINATION": 86.3429, "RA_OF_ASC_NODE": 7.9402, "ARG_OF_PERICENTER": 96.3176, "MEAN_ANOMALY": 317.7996, "EPHEMERIS_TYPE": 0, "CLASSIFICATION_TYPE": "U", "NORAD_CAT_ID": 34487, "ELEMENT_SET_NO": 999, "REV_AT_EPOCH": 88397, "BSTAR": 0.00017561183, "MEAN_MOTION_DOT": 6.15e-06, "MEAN_MOTION_DDOT": 0}, "tle": {"line1": "1 34487U 97051GC  25357.04459765  .00000615  00000+0  17561-3 0  9994", "line2": "2 34487  86.3429   7.9402 0033244  96.3176 317.7996 14.43228898883976"}}, "geometry": {"type": "Point", "coordinates": [159.51378357131884, 82.2284898861446]}}, {"type": "Feature", "properties": {"norad_id": 34488, "name": "IRIDIUM 33 DEB", "group": "iridium-33-debris", "lat": 60.63870380239072, "lon": -53.297976852624444, "alt_km": 457.3627359137581, "timestamp": "2025-12-24T03:53:30.032065+00:00", "meta": {"OBJECT_NAME": "IRIDIUM 33 DEB", "OBJECT_ID": "1997-051GD", "EPOCH": "2025-12-22T20:16:29.836992", "MEAN_MOTION": 15.31851895, "ECCENTRICITY": 0.00102762, "INCLINATION": 86.3272, "RA_OF_ASC_NODE": 300.8002, "ARG_OF_PERICENTER": 36.0994, "MEAN_ANOMALY": 324.0947, "EPHEMERIS_TYPE": 0, "CLASSIFICATION_TYPE": "U", "NORAD_CAT_ID": 34488, "ELEMENT_SET_NO": 999, "REV_AT_EPOCH": 89394, "BSTAR": 0.0043586742, "MEAN_MOTION_DOT": 0.00136379, "MEAN_MOTION_DDOT": 0}, "tle": {"line1": "1 34488U 97051GD  25356.84478978  .00136379  00000+0  43587-2 0  9992", "line2": "2 34488  86.3272 300.8002 0010276  36.0994 324.0947 15.31851895893945"}}, "geometry": {"type": "Point", "coordinates": [-53.297976852624444, 60.63870380239072]}}, {"type": "Feature", "properties": {"norad_id": 34492, "name": "IRIDIUM 33 DEB", "group": "iridium-33-debris", "lat": -12.154825688500067, "lon": 150.77205819355808, "alt_km": 675.9098876717599, "timestamp": "2025-12-24T03:53:30.032076+00:00", "meta": {"OBJECT_NAME": "IRIDIUM 33 DEB", "OBJECT_ID": "1997-051GH", "EPOCH": "2025-12-22T16:27:23.909760", "MEAN_MOTION": 14.25892201, "ECCENTRICITY": 0.01887746, "INCLINATION": 86.4712, "RA_OF_ASC_NODE": 330.6072, "ARG_OF_PERICENTER": 205.8586, "MEAN_ANOMALY": 332.2477, "EPHEMERIS_TYPE": 0, "CLASSIFICATION_TYPE": "U", "NORAD_CAT_ID": 34492, "ELEMENT_SET_NO": 999, "REV_AT_EPOCH": 85200, "BSTAR": 0.0029608099, "MEAN_MOTION_DOT": 8.523e-05, "MEAN_MOTION_DDOT": 0}, "tle": {"line1": "1 34492U 97051GH  25356.68569340  .00008523  00000+0  29608-2 0  9990", "line2": "2 34492  86.4712 330.6072 0188774 205.8586 332.2477 14.25892201852009"}}, "geometry": {"type": "Point", "coordinates": [150.77205819355808, -12.154825688500067]}}, {"type": "Feature", "properties": {"norad_id": 34497, "name": "IRIDIUM 33 DEB", "group": "iridium-33-debris", "lat": 41.91460669245814, "lon": -135.82937514680538, "alt_km": 850.734559293136, "timestamp": "2025-12-24T03:53:30.032087+00:00", "meta": {"OBJECT_NAME": "IRIDIUM 33 DEB", "OBJECT_ID": "1997-051GN", "EPOCH": "2025-12-22T21:33:03.136608", "MEAN_MOTION": 14.27482363, "ECCENTRICITY": 0.00780484, "INCLINATION": 86.2769, "RA_OF_ASC_NODE": 48.0617, "ARG_OF_PERICENTER": 306.2683, "MEAN_ANOMALY": 179.2919, "EPHEMERIS_TYPE": 0, "CLASSIFICATION_TYPE": "U", "NORAD_CAT_ID": 34497, "ELEMENT_SET_NO": 999, "REV_AT_EPOCH": 87028, "BSTAR": 0.00056228088, "MEAN_MOTION_DOT": 1.443e-05, "MEAN_MOTION_DDOT": 0}, "tle": {"line1": "1 34497U 97051GN  25356.89795297  .00001443  00000+0  56228-3 0  9993", "line2": "2 34497  86.2769  48.0617 0078048 306.2683 179.2919 14.27482363870281"}}, "geometry": {"type": "Point", "coordinates": [-135.82937514680538, 41.91460669245814]}}, {"type": "Feature", "properties": {"norad_id": 34508, "name": "IRIDIUM 33 DEB", "group": "iridium-33-debris", "lat": 26.92270472374744, "lon": 99.6481397344482, "alt_km": 777.750784723441, "timestamp": "2025-12-24T03:53:30.032097+00:00", "meta": {"OBJECT_NAME": "IRIDIUM 33 DEB", "OBJECT_ID": "1997-051GZ", "EPOCH": "2025-12-22T06:41:24.031968", "MEAN_MOTION": 14.38495257, "ECCENTRICITY": 0.00666176, "INCLINATION": 86.3708, "RA_OF_ASC_NODE": 98.5996, "ARG_OF_PERICENTER": 142.363, "MEAN_ANOMALY": 218.2258, "EPHEMERIS_TYPE": 0, "CLASSIFICATION_TYPE": "U", "NORAD_CAT_ID": 34508, "ELEMENT_SET_NO": 999, "REV_AT_EPOCH": 87446, "BSTAR": 0.0011650926, "MEAN_MOTION_DOT": 3.671e-05, "MEAN_MOTION_DDOT": 0}, "tle": {"line1": "1 34508U 97051GZ  25356.27875037  .00003671  00000+0  11651-2 0  9994", "line2": "2 34508  86.3708  98.5996 0066617 142.3630 218.2258 14.38495257874460"}}, "geometry": {"type": "Point", "coordinates": [99.6481397344482, 26.92270472374744]}}, {"type": "Feature", "properties": {"norad_id": 34521, "name": "IRIDIUM 33 DEB", "group": "iridium-33-debris", "lat": 30.130737335107792, "lon": -156.58834775388613, "alt_km": 678.6290533199071, "timestamp": "2025-12-24T03:53:30.032107+00:00", "meta": {"OBJECT_NAME": "IRIDIUM 33 DEB", "OBJECT_ID": "1997-051HN", "EPOCH": "2025-12-23T12:26:26.164032", "MEAN_MOTION": 14.63450821, "ECCENTRICITY": 0.0002938, "INCLINATION": 86.3785, "RA_OF_ASC_NODE": 25.8017, "ARG_OF_PERICENTER": 171.2087, "MEAN_ANOMALY": 188.9177, "EPHEMERIS_TYPE": 0, "CLASSIFICATION_TYPE": "U", "NORAD_CAT_ID": 34521, "ELEMENT_SET_NO": 999, "REV_AT_EPOCH": 88630, "BSTAR": 0.00085468, "MEAN_MOTION_DOT": 4.445e-05, "MEAN_MOTION_DDOT": 0}, "tle": {"line1": "1 34521U 97051HN  25357.51835838  .00004445  00000+0  85468-3 0  9990", "line2": "2 34521  86.3785  25.8017 0002938 171.2087 188.9177 14.63450821886305"}}, "geometry": {"type": "Point", "coordinates": [-156.58834775388613, 30.130737335107792]}}, {"type": "Feature", "properties": {"norad_id": 34525, "name": "IRIDIUM 33 DEB", "group": "iridium-33-debris", "lat": -27.378080543612853, "lon": -136.14903315264547, "alt_km": 758.1218880195984, "timestamp": "2025-12-24T03:53:30.032118+00:00", "meta": {"OBJECT_NAME": "IRIDIUM 33 DEB", "OBJECT_ID": "1997-051HS", "EPOCH": "2025-12-23T02:06:13.696992", "MEAN_MOTION": 14.42929063, "ECCENTRICITY": 0.00063437, "INCLINATION": 86.3718, "RA_OF_ASC_NODE": 42.4266, "ARG_OF_PERICENTER": 71.3157, "MEAN_ANOMALY": 318.0037, "EPHEMERIS_TYPE": 0, "CLASSIFICATION_TYPE": "U", "NORAD_CAT_ID": 34525, "ELEMENT_SET_NO": 999, "REV_AT_EPOCH": 88237, "BSTAR": 0.00032314347, "MEAN_MOTION_DOT": 1.1e-05, "MEAN_MOTION_DDOT": 0}, "tle": {"line1": "1 34525U 97051HS  25357.08765853  .00001100  00000+0  32314-3 0  9992", "line2": "2 34525  86.3718  42.4266 0006343  71.3157 318.0037 14.42929063882378"}}, "geometry": {"type": "Point", "coordinates": [-136.14903315264547, -27.378080543612853]}}]}